IRIDIUM 136             
1 42962U 17061H   24173.87025966  .00000225  00000+0  73458-4 0  9997
2 42962  86.3970 328.3622 0001846  96.1121 264.0285 14.34219394350873
